OBJECT_NAME,OBJECT_ID,EPOCH,MEAN_MOTION,ECCENTRICITY,INCLINATION,RA_OF_ASC_NODE,ARG_OF_PERICENTER,MEAN_ANOMALY,EPHEMERIS_TYPE,CLASSIFICATION_TYPE,NORAD_CAT_ID,ELEMENT_SET_NO,REV_AT_EPOCH,BSTAR,MEAN_MOTION_DOT,MEAN_MOTION_DDOT
PERSEUS-M1,2014-033AF,2026-05-08T19:54:21.858624,14.95499147,.00129701,97.9623,72.3256,70.4100,289.8520,0,U,40039,999,64475,.11442648E-3,.1208E-4,0
POLYITAN-1,2014-033AJ,2026-05-09T00:10:10.257888,15.31929222,.0005368,98.0978,151.6028,285.4266,74.6380,0,U,40042,999,64759,.54696E-3,.16799E-3,0
TIGRISAT,2014-033AK,2026-05-08T23:15:24.909984,14.84996435,.0048971,97.7787,279.8950,201.7662,158.1473,0,U,40043,999,63980,.24919E-3,.2115E-4,0
AEROCUBE 6A,2014-033AM,2026-05-08T17:50:39.018624,14.97667628,.0040065,97.7206,296.1323,145.7943,214.5872,0,U,40045,999,64071,.54166185E-3,.6388E-4,0
AEROCUBE 6B,2014-033AN,2026-05-09T02:49:12.482976,14.99099749,.0037633,97.7180,296.2152,137.8307,222.5822,0,U,40046,999,64090,.48091E-3,.5869E-4,0
CANX-4,2014-034C,2026-05-09T04:10:49.590048,14.81192456,.0013716,98.3174,3.0467,132.4743,227.7630,0,U,40055,999,63875,.96662E-4,.696E-5,0
CANX-5,2014-034D,2026-05-09T04:09:13.090752,14.81209474,.0013707,98.3175,3.0868,132.6917,227.5451,0,U,40056,999,62956,.96165E-4,.692E-5,0
UKUBE-1,2014-037F,2026-05-08T22:56:28.175424,15.12932478,.0000635,98.4247,128.1287,35.0211,325.1059,0,U,40074,999,64262,.4278E-3,.7463E-4,0
BRITE-PL2 (HEWELIUSZ),2014-049B,2026-05-09T04:56:27.517056,14.94449962,.0012857,97.9054,240.9195,235.5611,124.4394,0,U,40119,999,63562,.14876E-3,.1546E-4,0
AEROCUBE 5C,2015-058B,2026-05-09T01:49:26.395680,14.91231922,.0129712,64.7688,24.2416,78.6492,282.9161,0,U,40965,999,35982,.23922E-3,.2624E-4,0
AEROCUBE 7,2015-058C,2026-05-09T01:10:54.374016,14.95422028,.0119529,64.7639,7.3753,77.3718,284.0730,0,U,40966,999,36010,.32343E-3,.3958E-4,0
FOX-1A (AO-85),2015-058D,2026-05-09T04:16:07.572288,14.90739330,.0128848,64.7764,40.1896,71.8916,289.6180,0,U,40967,999,10775,.24403E-3,.2638E-4,0
SINOD-D 1,2015-058E,2026-05-09T00:45:52.215840,14.95599348,.0117327,64.7768,21.5016,68.7550,292.6048,0,U,40968,999,11080,.3307E-3,.4049E-4,0
SNAP-3 ALICE,2015-058G,2026-05-09T00:45:05.783616,15.52974215,.0032419,64.7528,238.4349,33.2774,327.0398,0,U,40970,999,11079,.10791E-2,.69552E-3,0
LMRST-SAT,2015-058H,2026-05-09T04:34:13.216800,14.90364851,.0130649,64.7772,36.4153,73.8902,287.6547,0,U,40971,999,10774,.23782E-3,.2551E-4,0
SNAP-3 EDDIE,2015-058J,2026-05-08T23:40:53.277600,15.54112539,.0032894,64.7446,229.5910,37.0047,323.3355,0,U,40972,999,11292,.11533E-2,.77653E-3,0
PROPCUBE 3,2015-058K,2026-05-08T23:40:32.824128,14.93990001,.0122819,64.7705,14.9878,75.5204,285.9499,0,U,40973,999,10894,.28367E-3,.3339E-4,0
BISONSAT,2015-058L,2026-05-08T20:13:24.758688,15.15397709,.00785604,64.7597,300.7613,64.4152,296.5064,0,U,40974,999,10965,.57345976E-3,.1157E-3,0
SNAP-3 JIMI,2015-058M,2026-05-08T23:23:41.162208,15.01896433,.0104827,64.7663,343.7988,71.6039,289.6442,0,U,40975,999,10833,.39543E-3,.5653E-4,0
PROPCUBE 1 (FLORA),2015-058N,2026-05-09T04:14:24.218016,14.88999785,.0129467,64.7754,56.1172,76.1862,285.3616,0,U,40976,999,11045,.23396E-3,.2407E-4,0
SINOD-D 3,2015-058P,2026-05-09T01:52:47.006976,14.93717031,.0117944,64.7738,37.9141,73.7488,287.6562,0,U,40977,999,10891,.3231E-3,.3756E-4,0
HORYU-4,2016-012D,2026-05-08T22:40:32.194848,15.77027265,.000596,30.9892,2.4378,350.7128,9.3418,0,U,41340,999,56458,.91657E-3,.158613E-2,0
RAVAN,2016-067B,2026-05-09T04:25:35.742144,15.51193761,.0007152,97.9938,14.3627,129.5956,230.5927,0,U,41849,999,52164,.61493E-3,.35989E-3,0
CELTEE 1,2016-067C,2026-05-08T13:31:00.772896,15.19294997,.00020018,98.0725,352.4296,63.2034,296.9403,0,U,41850,999,51986,.22199106E-3,.4607E-4,0
OPTICUBE 04,2016-067D,2026-05-09T00:53:23.802720,15.09496287,.0014241,98.0745,339.2744,248.1313,111.8400,0,U,41851,999,51926,.10003E-3,.1534E-4,0
AEROCUBE 8D,2016-067E,2026-05-08T13:35:26.903904,15.23849484,.00018804,98.0737,355.7307,273.2120,86.8901,0,U,41852,999,52003,.27079551E-3,.6449E-4,0
AEROCUBE 8C,2016-067F,2026-05-09T04:31:21.865728,15.24093372,.0005159,98.0606,353.6790,179.6338,180.4902,0,U,41853,999,52012,.24706E-3,.5921E-4,0
CORVUS BC2,2017-042X,2026-05-08T22:20:53.248704,15.06046256,.001195,97.4037,291.8234,243.6698,116.3303,0,U,42846,999,48115,.22079E-3,.3167E-4,0
CORVUS BC1,2017-042Y,2026-05-08T23:55:12.732096,15.06219418,.0011144,97.4070,292.6746,217.0743,142.9716,0,U,42847,999,48119,.23399E-3,.3375E-4,0
MAKERSAT 0,2017-073D,2026-05-09T04:01:25.553568,15.30445615,.0112297,97.4679,11.4219,52.5361,308.6029,0,U,43016,999,46049,.54475E-3,.19438E-3,0
