PERSEUS-M1              
1 40039U 14033AF  26128.82941966  .00001208  00000+0  11443-3 0  9997
2 40039  97.9623  72.3256 0012970  70.4100 289.8520 14.95499147644753
POLYITAN-1              
1 40042U 14033AJ  26129.00706317  .00016799  00000+0  54696-3 0  9999
2 40042  98.0978 151.6028 0005368 285.4266  74.6380 15.31929222647596
TIGRISAT                
1 40043U 14033AK  26128.96903831  .00002115  00000+0  24919-3 0  9996
2 40043  97.7787 279.8950 0048971 201.7662 158.1473 14.84996435639809
AEROCUBE 6A             
1 40045U 14033AM  26128.74350716  .00006388  00000+0  54166-3 0  9995
2 40045  97.7206 296.1323 0040065 145.7943 214.5872 14.97667628640713
AEROCUBE 6B             
1 40046U 14033AN  26129.11750559  .00005869  00000+0  48091-3 0  9990
2 40046  97.7180 296.2152 0037633 137.8307 222.5822 14.99099749640909
CANX-4                  
1 40055U 14034C   26129.17418507  .00000696  00000+0  96662-4 0  9992
2 40055  98.3174   3.0467 0013716 132.4743 227.7630 14.81192456638757
CANX-5                  
1 40056U 14034D   26129.17306818  .00000692  00000+0  96165-4 0  9998
2 40056  98.3175   3.0868 0013707 132.6917 227.5451 14.81209474629566
UKUBE-1                 
1 40074U 14037F   26128.95588166  .00007463  00000+0  42780-3 0  9990
2 40074  98.4247 128.1287 0000635  35.0211 325.1059 15.12932478642623
BRITE-PL2 (HEWELIUSZ)   
1 40119U 14049B   26129.20587404  .00001546  00000+0  14876-3 0  9997
2 40119  97.9054 240.9195 0012857 235.5611 124.4394 14.94449962635628
AEROCUBE 5C             
1 40965U 15058B   26129.07599995  .00002624  00000+0  23922-3 0  9990
2 40965  64.7688  24.2416 0129712  78.6492 282.9161 14.91231922359822
AEROCUBE 7              
1 40966U 15058C   26129.04924044  .00003958  00000+0  32343-3 0  9993
2 40966  64.7639   7.3753 0119529  77.3718 284.0730 14.95422028360108
FOX-1A (AO-85)          
1 40967U 15058D   26129.17786542  .00002638  00000+0  24403-3 0  9999
2 40967  64.7764  40.1896 0128848  71.8916 289.6180 14.90739330107756
SINOD-D 1               
1 40968U 15058E   26129.03185435  .00004049  00000+0  33070-3 0  9997
2 40968  64.7768  21.5016 0117327  68.7550 292.6048 14.95599348110802
SNAP-3 ALICE            
1 40970U 15058G   26129.03131694  .00069552  00000+0  10791-2 0  9992
2 40970  64.7528 238.4349 0032419  33.2774 327.0398 15.52974215110793
LMRST-SAT               
1 40971U 15058H   26129.19043075  .00002551  00000+0  23782-3 0  9996
2 40971  64.7772  36.4153 0130649  73.8902 287.6547 14.90364851107749
SNAP-3 EDDIE            
1 40972U 15058J   26128.98672775  .00077653  00000+0  11533-2 0  9993
2 40972  64.7446 229.5910 0032894  37.0047 323.3355 15.54112539112925
PROPCUBE 3              
1 40973U 15058K   26128.98649102  .00003339  00000+0  28367-3 0  9996
2 40973  64.7705  14.9878 0122819  75.5204 285.9499 14.93990001108941
BISONSAT                
1 40974U 15058L   26128.84264767  .00011570  00000+0  57346-3 0  9997
2 40974  64.7597 300.7613 0078560  64.4152 296.5064 15.15397709109652
SNAP-3 JIMI             
1 40975U 15058M   26128.97478197  .00005653  00000+0  39543-3 0  9990
2 40975  64.7663 343.7988 0104827  71.6039 289.6442 15.01896433108339
PROPCUBE 1 (FLORA)      
1 40976U 15058N   26129.17666919  .00002407  00000+0  23396-3 0  9998
2 40976  64.7754  56.1172 0129467  76.1862 285.3616 14.88999785110452
SINOD-D 3               
1 40977U 15058P   26129.07832184  .00003756  00000+0  32310-3 0  9991
2 40977  64.7738  37.9141 0117944  73.7488 287.6562 14.93717031108913
HORYU-4                 
1 41340U 16012D   26128.94481707  .00158613  00000+0  91657-3 0  9995
2 41340  30.9892   2.4378 0005960 350.7128   9.3418 15.77027265564580
RAVAN                   
1 41849U 16067B   26129.18444146  .00035989  00000+0  61493-3 0  9997
2 41849  97.9938  14.3627 0007152 129.5956 230.5927 15.51193761521643
CELTEE 1                
1 41850U 16067C   26128.56320339  .00004607  00000+0  22199-3 0  9990
2 41850  98.0725 352.4296 0002001  63.2034 296.9403 15.19294997519861
OPTICUBE 04             
1 41851U 16067D   26129.03708105  .00001534  00000+0  10003-3 0  9992
2 41851  98.0745 339.2744 0014241 248.1313 111.8400 15.09496287519269
AEROCUBE 8D             
1 41852U 16067E   26128.56628361  .00006449  00000+0  27080-3 0  9998
2 41852  98.0737 355.7307 0001880 273.2120  86.8901 15.23849484520030
AEROCUBE 8C             
1 41853U 16067F   26129.18844752  .00005921  00000+0  24706-3 0  9998
2 41853  98.0606 353.6790 0005159 179.6338 180.4902 15.24093372520122
CORVUS BC2              
1 42846U 17042X   26128.93117186  .00003167  00000+0  22079-3 0  9992
2 42846  97.4037 291.8234 0011950 243.6698 116.3303 15.06046256481150
CORVUS BC1              
1 42847U 17042Y   26128.99667514  .00003375  00000+0  23399-3 0  9991
2 42847  97.4070 292.6746 0011144 217.0743 142.9716 15.06219418481195
MAKERSAT 0              
1 43016U 17073D   26129.16765687  .00019438  00000+0  54475-3 0  9990
2 43016  97.4679  11.4219 0112297  52.5361 308.6029 15.30445615460495
